HTV-X1                  
1 66174U 25241A   26073.34423285  .00013198  00000+0  56794-3 0  9992
2 66174  51.6357  50.7100 0005732 187.3443 172.7451 15.22910005 21660
SZ-21 MODULE            
1 66515U 25246C   26079.19410922  .00026007  00000+0  21818-3 0  9991
2 66515  41.4734 138.6579 0000376 257.1443 102.9357 15.69318212 19723
SHENZHOU-22             
1 66645U 25272A   26079.08035554  .00021521  00000+0  25018-3 0  9998
2 66645  41.4665 144.9122 0005723 338.4006  21.6591 15.61198196279109
SOYUZ-MS 28             
1 66664U 25275A   26079.16224066  .00008474  00000+0  16520-3 0  9999
2 66664  51.6345  20.5881 0006234 211.0869 148.9751 15.48388697557719
DUPLEX                  
1 66906U 98067XS  26079.24354681  .00021800  00000+0  30375-3 0  9995
2 66906  51.6306  16.6351 0002977 156.4039 203.7090 15.56853092 16771
ISS OBJECT XT           
1 66907U 98067XT  26079.20560356  .00134900  00000+0  96948-3 0  9994
2 66907  51.6260  11.8555 0005247 148.6370 211.4942 15.72675756 16834
ISS OBJECT XU           
1 66908U 98067XU  26079.20288745  .00132745  00000+0  94883-3 0  9995
2 66908  51.6253  11.8334 0005459 148.3920 211.7407 15.72809442 16835
SILVERSAT               
1 66909U 98067XV  26079.18151254  .00178475  00000+0  10695-2 0  9995
2 66909  51.6236  10.9348 0005872 151.9613 208.1704 15.76718316 16844
ISS OBJECT XW           
1 66910U 98067XW  26079.20605164  .00118472  00000+0  89059-3 0  9996
2 66910  51.6255  11.8505 0005807 150.0745 210.0586 15.71670531 16836
ISS OBJECT XX           
1 66911U 98067XX  26079.02665575  .00265567  00000+0  12858-2 0  9999
2 66911  51.6213  10.6240 0007540 154.6748 205.4625 15.81175637 16822
ISS OBJECT XY           
1 66912U 98067XY  26079.18337813  .00070580  00000+0  68564-3 0  9993
2 66912  51.6283  13.9735 0003834 151.9435 208.1768 15.65652756 16798
KNACKSAT-2              
1 67683U 98067XZ  26079.22137571  .00028505  00000+0  45951-3 0  9998
2 67683  51.6326  19.4857 0009694 223.4143 136.6084 15.52646122  6420
